[{"OBJECT_NAME":"SHIJIAN-6 02B (SJ-6 02B)","OBJECT_ID":"2006-046B","EPOCH":"2026-03-28T15:07:04.636992","MEAN_MOTION":15.01092486,"ECCENTRICITY":0.00128549,"INCLINATION":97.7101,"RA_OF_ASC_NODE":117.2174,"ARG_OF_PERICENTER":342.8375,"MEAN_ANOMALY":17.2412,"EPHEMERIS_TYPE":0,"CLASSIFICATION_TYPE":"U","NORAD_CAT_ID":29506,"ELEMENT_SET_NO":999,"REV_AT_EPOCH":5865,"BSTAR":0.00019485983,"MEAN_MOTION_DOT":2.436e-5,"MEAN_MOTION_DDOT":0},{"OBJECT_NAME":"FGRST (GLAST)","OBJECT_ID":"2008-029A","EPOCH":"2026-03-28T13:08:25.780704","MEAN_MOTION":15.23470437,"ECCENTRICITY":0.0008617,"INCLINATION":25.5832,"RA_OF_ASC_NODE":44.2103,"ARG_OF_PERICENTER":94.4393,"MEAN_ANOMALY":265.713,"EPHEMERIS_TYPE":0,"CLASSIFICATION_TYPE":"U","NORAD_CAT_ID":33053,"ELEMENT_SET_NO":999,"REV_AT_EPOCH":98352,"BSTAR":0.0001632611,"MEAN_MOTION_DOT":4.345e-5,"MEAN_MOTION_DDOT":0},{"OBJECT_NAME":"SDO","OBJECT_ID":"2010-005A","EPOCH":"2026-03-27T11:56:38.758848","MEAN_MOTION":1.00273906,"ECCENTRICITY":7.07e-5,"INCLINATION":34.4813,"RA_OF_ASC_NODE":87.5744,"ARG_OF_PERICENTER":38.8175,"MEAN_ANOMALY":135.9004,"EPHEMERIS_TYPE":0,"CLASSIFICATION_TYPE":"U","NORAD_CAT_ID":36395,"ELEMENT_SET_NO":999,"REV_AT_EPOCH":5924,"BSTAR":0,"MEAN_MOTION_DOT":-6.7e-7,"MEAN_MOTION_DDOT":0},{"OBJECT_NAME":"CRYOSAT 2","OBJECT_ID":"2010-013A","EPOCH":"2026-03-28T13:59:18.848256","MEAN_MOTION":14.5190765,"ECCENTRICITY":0.00022743,"INCLINATION":92.0246,"RA_OF_ASC_NODE":257.7579,"ARG_OF_PERICENTER":96.879,"MEAN_ANOMALY":263.2676,"EPHEMERIS_TYPE":0,"CLASSIFICATION_TYPE":"U","NORAD_CAT_ID":36508,"ELEMENT_SET_NO":999,"REV_AT_EPOCH":84638,"BSTAR":5.4016658e-5,"MEAN_MOTION_DOT":2.21e-6,"MEAN_MOTION_DDOT":0},{"OBJECT_NAME":"X-SAT","OBJECT_ID":"2011-015C","EPOCH":"2026-03-28T13:24:36.768096","MEAN_MOTION":14.25180467,"ECCENTRICITY":0.00131408,"INCLINATION":98.3455,"RA_OF_ASC_NODE":68.4518,"ARG_OF_PERICENTER":216.2538,"MEAN_ANOMALY":143.7753,"EPHEMERIS_TYPE":0,"CLASSIFICATION_TYPE":"U","NORAD_CAT_ID":37389,"ELEMENT_SET_NO":999,"REV_AT_EPOCH":77619,"BSTAR":0.00012643694,"MEAN_MOTION_DOT":2.56e-6,"MEAN_MOTION_DDOT":0},{"OBJECT_NAME":"GCOM-W1 (SHIZUKU)","OBJECT_ID":"2012-025A","EPOCH":"2026-03-28T13:46:09.299136","MEAN_MOTION":14.57124601,"ECCENTRICITY":0.00012349,"INCLINATION":98.2077,"RA_OF_ASC_NODE":29.3544,"ARG_OF_PERICENTER":73.0296,"MEAN_ANOMALY":100.4556,"EPHEMERIS_TYPE":0,"CLASSIFICATION_TYPE":"U","NORAD_CAT_ID":38337,"ELEMENT_SET_NO":999,"REV_AT_EPOCH":73729,"BSTAR":0.0001502595,"MEAN_MOTION_DOT":6.32e-6,"MEAN_MOTION_DDOT":0},{"OBJECT_NAME":"NUSTAR","OBJECT_ID":"2012-031A","EPOCH":"2026-03-28T14:00:01.999872","MEAN_MOTION":15.07957673,"ECCENTRICITY":0.00085401,"INCLINATION":6.0258,"RA_OF_ASC_NODE":278.3978,"ARG_OF_PERICENTER":344.2795,"MEAN_ANOMALY":47.9967,"EPHEMERIS_TYPE":0,"CLASSIFICATION_TYPE":"U","NORAD_CAT_ID":38358,"ELEMENT_SET_NO":999,"REV_AT_EPOCH":130,"BSTAR":0.00060778433,"MEAN_MOTION_DOT":0.00010492,"MEAN_MOTION_DDOT":0},{"OBJECT_NAME":"NEOSSAT","OBJECT_ID":"2013-009D","EPOCH":"2026-03-28T10:36:37.088352","MEAN_MOTION":14.35795382,"ECCENTRICITY":0.00119881,"INCLINATION":98.4157,"RA_OF_ASC_NODE":269.399,"ARG_OF_PERICENTER":124.1633,"MEAN_ANOMALY":236.0692,"EPHEMERIS_TYPE":0,"CLASSIFICATION_TYPE":"U","NORAD_CAT_ID":39089,"ELEMENT_SET_NO":999,"REV_AT_EPOCH":68515,"BSTAR":9.5809595e-5,"MEAN_MOTION_DOT":2.35e-6,"MEAN_MOTION_DDOT":0},{"OBJECT_NAME":"BRITE-AUSTRIA","OBJECT_ID":"2013-009F","EPOCH":"2026-03-28T11:32:18.548736","MEAN_MOTION":14.3650658,"ECCENTRICITY":0.00112668,"INCLINATION":98.3972,"RA_OF_ASC_NODE":268.9194,"ARG_OF_PERICENTER":118.4557,"MEAN_ANOMALY":241.7766,"EPHEMERIS_TYPE":0,"CLASSIFICATION_TYPE":"U","NORAD_CAT_ID":39091,"ELEMENT_SET_NO":999,"REV_AT_EPOCH":68546,"BSTAR":9.4790629e-5,"MEAN_MOTION_DOT":2.36e-6,"MEAN_MOTION_DDOT":0},{"OBJECT_NAME":"IRIS","OBJECT_ID":"2013-033A","EPOCH":"2026-03-28T13:16:08.058720","MEAN_MOTION":14.85701844,"ECCENTRICITY":0.00235913,"INCLINATION":97.9391,"RA_OF_ASC_NODE":287.0629,"ARG_OF_PERICENTER":220.4668,"MEAN_ANOMALY":139.4793,"EPHEMERIS_TYPE":0,"CLASSIFICATION_TYPE":"U","NORAD_CAT_ID":39197,"ELEMENT_SET_NO":999,"REV_AT_EPOCH":68840,"BSTAR":0.00016548835,"MEAN_MOTION_DOT":1.386e-5,"MEAN_MOTION_DDOT":0},{"OBJECT_NAME":"HISAKI (SPRINT-A)","OBJECT_ID":"2013-049A","EPOCH":"2026-03-28T13:22:08.721696","MEAN_MOTION":13.5553337,"ECCENTRICITY":0.01364157,"INCLINATION":29.7191,"RA_OF_ASC_NODE":269.9385,"ARG_OF_PERICENTER":83.113,"MEAN_ANOMALY":278.4939,"EPHEMERIS_TYPE":0,"CLASSIFICATION_TYPE":"U","NORAD_CAT_ID":39253,"ELEMENT_SET_NO":999,"REV_AT_EPOCH":62047,"BSTAR":0.00011358878,"MEAN_MOTION_DOT":1.47e-6,"MEAN_MOTION_DDOT":0},{"OBJECT_NAME":"CASSIOPE","OBJECT_ID":"2013-055A","EPOCH":"2026-03-28T14:01:36.305472","MEAN_MOTION":15.20160358,"ECCENTRICITY":0.03093651,"INCLINATION":80.9177,"RA_OF_ASC_NODE":164.2053,"ARG_OF_PERICENTER":333.066,"MEAN_ANOMALY":25.4787,"EPHEMERIS_TYPE":0,"CLASSIFICATION_TYPE":"U","NORAD_CAT_ID":39265,"ELEMENT_SET_NO":999,"REV_AT_EPOCH":65540,"BSTAR":0.00043328033,"MEAN_MOTION_DOT":0.00036399,"MEAN_MOTION_DDOT":-3.54712e-7},{"OBJECT_NAME":"STSAT-3","OBJECT_ID":"2013-066G","EPOCH":"2026-03-28T14:19:43.943232","MEAN_MOTION":15.02244657,"ECCENTRICITY":0.00097075,"INCLINATION":97.613,"RA_OF_ASC_NODE":58.8621,"ARG_OF_PERICENTER":308.0034,"MEAN_ANOMALY":52.0314,"EPHEMERIS_TYPE":0,"CLASSIFICATION_TYPE":"U","NORAD_CAT_ID":39422,"ELEMENT_SET_NO":999,"REV_AT_EPOCH":67210,"BSTAR":0.00024527957,"MEAN_MOTION_DOT":3.178e-5,"MEAN_MOTION_DDOT":0},{"OBJECT_NAME":"SWARM B","OBJECT_ID":"2013-067A","EPOCH":"2026-03-28T14:19:02.856576","MEAN_MOTION":15.28031201,"ECCENTRICITY":0.00032012,"INCLINATION":87.7502,"RA_OF_ASC_NODE":6.765,"ARG_OF_PERICENTER":77.2607,"MEAN_ANOMALY":282.8999,"EPHEMERIS_TYPE":0,"CLASSIFICATION_TYPE":"U","NORAD_CAT_ID":39451,"ELEMENT_SET_NO":999,"REV_AT_EPOCH":67093,"BSTAR":0.00016762851,"MEAN_MOTION_DOT":4.614e-5,"MEAN_MOTION_DDOT":0},{"OBJECT_NAME":"SWARM A","OBJECT_ID":"2013-067B","EPOCH":"2026-03-28T12:32:49.302240","MEAN_MOTION":15.4919356,"ECCENTRICITY":0.00033801,"INCLINATION":87.328,"RA_OF_ASC_NODE":86.1732,"ARG_OF_PERICENTER":95.5489,"MEAN_ANOMALY":264.6156,"EPHEMERIS_TYPE":0,"CLASSIFICATION_TYPE":"U","NORAD_CAT_ID":39452,"ELEMENT_SET_NO":999,"REV_AT_EPOCH":69375,"BSTAR":0.00024566397,"MEAN_MOTION_DOT":0.0001342,"MEAN_MOTION_DDOT":0},{"OBJECT_NAME":"SWARM C","OBJECT_ID":"2013-067C","EPOCH":"2026-03-28T12:32:41.853696","MEAN_MOTION":15.49189083,"ECCENTRICITY":0.00033717,"INCLINATION":87.328,"RA_OF_ASC_NODE":84.7542,"ARG_OF_PERICENTER":95.5792,"MEAN_ANOMALY":264.5853,"EPHEMERIS_TYPE":0,"CLASSIFICATION_TYPE":"U","NORAD_CAT_ID":39453,"ELEMENT_SET_NO":999,"REV_AT_EPOCH":69371,"BSTAR":0.00024906768,"MEAN_MOTION_DOT":0.00013603,"MEAN_MOTION_DDOT":0},{"OBJECT_NAME":"BRITE-CA1 (TORONTO)","OBJECT_ID":"2014-033L","EPOCH":"2026-03-28T07:35:28.739904","MEAN_MOTION":14.72520262,"ECCENTRICITY":0.00790519,"INCLINATION":97.9601,"RA_OF_ASC_NODE":217.8031,"ARG_OF_PERICENTER":174.9106,"MEAN_ANOMALY":185.2924,"EPHEMERIS_TYPE":0,"CLASSIFICATION_TYPE":"U","NORAD_CAT_ID":40020,"ELEMENT_SET_NO":999,"REV_AT_EPOCH":63031,"BSTAR":0.00024760106,"MEAN_MOTION_DOT":1.599e-5,"MEAN_MOTION_DDOT":0}]
