SHIJIAN-6 02B (SJ-6 02B)
1 29506U 06046B   26087.62991478  .00002436  00000+0  19486-3 0  9992
2 29506  97.7101 117.2174 0012854 342.8375  17.2412 15.01092486 58651
FGRST (GLAST)           
1 33053U 08029A   26087.54752061  .00004345  00000+0  16326-3 0  9992
2 33053  25.5832  44.2103 0008617  94.4393 265.7130 15.23470437983526
SDO                     
1 36395U 10005A   26086.49767082 -.00000067  00000+0  00000+0 0  9999
2 36395  34.4813  87.5744 0000707  38.8175 135.9004  1.00273906 59242
CRYOSAT 2               
1 36508U 10013A   26087.58285704  .00000221  00000+0  54017-4 0  9994
2 36508  92.0246 257.7579 0002274  96.8790 263.2676 14.51907650846382
X-SAT                   
1 37389U 11015C   26087.55875889  .00000256  00000+0  12644-3 0  9998
2 37389  98.3455  68.4518 0013140 216.2538 143.7753 14.25180467776192
GCOM-W1 (SHIZUKU)       
1 38337U 12025A   26087.57371874  .00000632  00000+0  15026-3 0  9996
2 38337  98.2077  29.3544 0001234  73.0296 100.4556 14.57124601737293
NUSTAR                  
1 38358U 12031A   26087.58335648  .00010492  00000+0  60778-3 0  9995
2 38358   6.0258 278.3978 0008540 344.2795  47.9967 15.07957673  1301
NEOSSAT                 
1 39089U 13009D   26087.44209593  .00000235  00000+0  95810-4 0  9997
2 39089  98.4157 269.3990 0011988 124.1633 236.0692 14.35795382685150
BRITE-AUSTRIA           
1 39091U 13009F   26087.48077024  .00000236  00000+0  94791-4 0  9994
2 39091  98.3972 268.9194 0011266 118.4557 241.7766 14.36506580685468
IRIS                    
1 39197U 13033A   26087.55287105  .00001386  00000+0  16549-3 0  9990
2 39197  97.9391 287.0629 0023591 220.4668 139.4793 14.85701844688405
HISAKI (SPRINT-A)       
1 39253U 13049A   26087.55704539  .00000147  00000+0  11359-3 0  9993
2 39253  29.7191 269.9385 0136415  83.1130 278.4939 13.55533370620477
CASSIOPE                
1 39265U 13055A   26087.58444798  .00036399 -35471-6  43328-3 0  9991
2 39265  80.9177 164.2053 0309365 333.0660  25.4787 15.20160358655401
STSAT-3                 
1 39422U 13066G   26087.59703638  .00003178  00000+0  24528-3 0  9992
2 39422  97.6130  58.8621 0009707 308.0034  52.0314 15.02244657672106
SWARM B                 
1 39451U 13067A   26087.59656084  .00004614  00000+0  16763-3 0  9995
2 39451  87.7502   6.7650 0003201  77.2607 282.8999 15.28031201670937
SWARM A                 
1 39452U 13067B   26087.52279285  .00013420  00000+0  24566-3 0  9998
2 39452  87.3280  86.1732 0003380  95.5489 264.6156 15.49193560693757
SWARM C                 
1 39453U 13067C   26087.52270664  .00013603  00000+0  24907-3 0  9993
2 39453  87.3280  84.7542 0003371  95.5792 264.5853 15.49189083693712
BRITE-CA1 (TORONTO)     
1 40020U 14033L   26087.31630486  .00001599  00000+0  24760-3 0  9996
2 40020  97.9601 217.8031 0079051 174.9106 185.2924 14.72520262630317
